COMMENT,ORIGINATOR,NORAD_CAT_ID,OBJECT_NAME,OBJECT_TYPE,CLASSIFICATION_TYPE,INTLDES,EPOCH,EPOCH_MICROSECONDS,MEAN_MOTION,ECCENTRICITY,INCLINATION,RA_OF_ASC_NODE,ARG_OF_PERICENTER,MEAN_ANOMALY,EPHEMERIS_TYPE,ELEMENT_SET_NO,REV_AT_EPOCH,BSTAR,MEAN_MOTION_DOT,MEAN_MOTION_DDOT,FILE,TLE_LINE0,TLE_LINE1,TLE_LINE2,OBJECT_ID,OBJECT_NUMBER,SEMIMAJOR_AXIS,PERIOD,APOGEE,PERIGEE,DECAYED
"GENERATED VIA SPACETRACK.ORG API","18 SPCS","53903","STARLINK-5022","PAYLOAD","U","22119T","2023-04-25 01:54:28","767168","15.0887985","0.000121","53.2197","355.6839","87.0901","273.023","0","999","3323","0.00047868","0.00007347","0","3894092","0 STARLINK-5022","1 53903U 22119T   23115.07949962  .00007347  00000-0  47868-3 0  9990","2 53903  53.2197 355.6839 0001210  87.0901 273.0230 15.08879850 33236","2022-119T","53903","6917.759","95.435","540.461","538.787","0"
"GENERATED VIA SPACETRACK.ORG API","18 SPCS","53903","STARLINK-5022","PAYLOAD","U","22119T","2023-04-26 14:28:24","281184","15.08824099","0.0001102","53.2163","348.8435","62.3403","297.7701","0","999","3346","-0.00039511","-0.00006568","0","3894260","0 STARLINK-5022","1 53903U 22119T   23116.60305881 -.00006568  00000-0 -39511-3 0  9998","2 53903  53.2163 348.8435 0001102  62.3403 297.7701 15.08824099 33464","2022-119T","53903","6917.929","95.439","540.556","539.032","0"
"GENERATED VIA SPACETRACK.ORG API","18 SPCS","53903","STARLINK-5022","PAYLOAD","U","22119T","2023-04-26 22:25:20","64864","15.0882816","0.0001114","53.2167","347.3579","85.1731","274.9388","0","999","3351","-0.00020608","-0.00003565","0","3894261","0 STARLINK-5022","1 53903U 22119T   23116.93426001 -.00003565  00000-0 -20608-3 0  9993","2 53903  53.2167 347.3579 0001114  85.1731 274.9388 15.08828160 33518","2022-119T","53903","6917.917","95.438","540.552","539.011","0"
"GENERATED VIA SPACETRACK.ORG API","18 SPCS","53903","STARLINK-5022","PAYLOAD","U","22119T","2023-04-26 22:25:20","64864","15.0882816","0.0001114","53.2167","347.3579","85.1731","274.9388","0","999","3309","-0.00020608","-0.00003565","0","3894569","0 STARLINK-5022","1 53903U 22119T   23116.93426001 -.00003565  00000-0 -20608-3 0  9993","2 53903  53.2167 347.3579 0001114  85.1731 274.9388 15.08828160 33091","2022-119T","53903","6917.917","95.438","540.552","539.011","0"
"GENERATED VIA SPACETRACK.ORG API","18 SPCS","53903","STARLINK-5022","PAYLOAD","U","22119T","2023-04-27 20:40:44","88096","15.08832642","0.0001179","53.2177","343.1935","97.4865","262.6261","0","999","3323","0.00063056","0.0000976","0","3894782","0 STARLINK-5022","1 53903U 22119T   23117.86162139  .00009760  00000-0  63056-3 0  9990","2 53903  53.2177 343.1935 0001179  97.4865 262.6261 15.08832642 33237","2022-119T","53903","6917.903","95.438","540.584","538.952","0"
"GENERATED VIA SPACETRACK.ORG API","18 SPCS","53903","STARLINK-5022","PAYLOAD","U","22119T","2023-04-28 07:48:26","524800","15.08843208","0.000173","53.2175","341.1127","85.8982","274.2208","0","999","3372","0.00051688","0.00007948","0","3895770","0 STARLINK-5022","1 53903U 22119T   23118.32530700  .00007948  00000-0  51688-3 0  9999","2 53903  53.2175 341.1127 0001730  85.8982 274.2208 15.08843208 33724","2022-119T","53903","6917.871","95.437","540.932","538.539","0"
"GENERATED VIA SPACETRACK.ORG API","18 SPCS","53903","STARLINK-5022","PAYLOAD","U","22119T","2023-04-28 22:06:54","661536","15.08841706","0.0001316","53.2185","338.4344","83.0278","277.0864","0","999","3339","-0.000014059","-0.00000512","0","3896087","0 STARLINK-5022","1 53903U 22119T   23118.92146599 -.00000512  00000-0 -14059-4 0  9998","2 53903  53.2185 338.4344 0001316  83.0278 277.0864 15.08841706 33396","2022-119T","53903","6917.875","95.437","540.651","538.830","0"
"GENERATED VIA SPACETRACK.ORG API","18 SPCS","53903","STARLINK-5022","PAYLOAD","U","22119T","2023-04-28 22:06:54","661536","15.08841706","0.0001316","53.2185","338.4344","83.0278","277.0864","0","999","3381","-0.000014059","-0.00000512","0","3896517","0 STARLINK-5022","1 53903U 22119T   23118.92146599 -.00000512  00000-0 -14059-4 0  9998","2 53903  53.2185 338.4344 0001316  83.0278 277.0864 15.08841706 33813","2022-119T","53903","6917.875","95.437","540.651","538.830","0"
"GENERATED VIA SPACETRACK.ORG API","18 SPCS","53903","STARLINK-5022","PAYLOAD","U","22119T","2023-04-29 20:22:17","908896","15.08849262","0.0001285","53.2173","334.2747","88.2586","271.8553","0","999","3353","0.000032379","0.00000228","0","3896895","0 STARLINK-5022","1 53903U 22119T   23119.84881839  .00000228  00000-0  32379-4 0  9990","2 53903  53.2173 334.2747 0001285  88.2586 271.8553 15.08849262 33536","2022-119T","53903","6917.852","95.437","540.606","538.828","0"
"GENERATED VIA SPACETRACK.ORG API","18 SPCS","53903","STARLINK-5022","PAYLOAD","U","22119T","2023-04-29 20:22:17","908896","15.08849262","0.0001285","53.2173","334.2747","88.2586","271.8553","0","999","3395","0.000032379","0.00000228","0","3897442","0 STARLINK-5022","1 53903U 22119T   23119.84881839  .00000228  00000-0  32379-4 0  9990","2 53903  53.2173 334.2747 0001285  88.2586 271.8553 15.08849262 33952","2022-119T","53903","6917.852","95.437","540.606","538.828","0"
"GENERATED VIA SPACETRACK.ORG API","18 SPCS","53903","STARLINK-5022","PAYLOAD","U","22119T","2023-04-30 18:37:42","276000","15.08840367","0.0001395","53.2168","330.1085","98.6745","261.4405","0","999","3367","0.00015709","0.00002213","0","3897522","0 STARLINK-5022","1 53903U 22119T   23120.77618375  .00002213  00000-0  15709-3 0  9990","2 53903  53.2168 330.1085 0001395  98.6745 261.4405 15.08840367 33677","2022-119T","53903","6917.879","95.438","540.709","538.779","0"
"GENERATED VIA SPACETRACK.ORG API","18 SPCS","53903","STARLINK-5022","PAYLOAD","U","22119T","2023-05-01 13:42:19","695456","15.08846269","0.0001261","53.2194","326.5326","94.625","265.4886","0","999","3421","0.000012393","-0.00000091","0","3898258","0 STARLINK-5022","1 53903U 22119T   23121.57106129 -.00000091  00000-0  12393-4 0  9998","2 53903  53.2194 326.5326 0001261  94.6250 265.4886 15.08846269 34217","2022-119T","53903","6917.861","95.437","540.599","538.854","0"
"GENERATED VIA SPACETRACK.ORG API","18 SPCS","53903","STARLINK-5022","PAYLOAD","U","22119T","2023-05-01 20:03:52","18272","15.08850714","0.0001171","53.2174","325.3487","97.0985","263.014","0","999","3425","0.00015604","0.00002197","0","3898518","0 STARLINK-5022","1 53903U 22119T   23121.83601873  .00002197  00000-0  15604-3 0  9998","2 53903  53.2174 325.3487 0001171  97.0985 263.0140 15.08850714 34253","2022-119T","53903","6917.848","95.437","540.523","538.903","0"
"GENERATED VIA SPACETRACK.ORG API","18 SPCS","53903","STARLINK-5022","PAYLOAD","U","22119T","2023-05-01 23:14:38","307552","15.08852324","0.000125","53.2177","324.7577","96.6237","263.4897","0","999","3385","0.00028249","0.00004212","0","3898558","0 STARLINK-5022","1 53903U 22119T   23121.96849893  .00004212  00000-0  28249-3 0  9997","2 53903  53.2177 324.7577 0001250  96.6237 263.4897 15.08852324 33859","2022-119T","53903","6917.843","95.437","540.572","538.843","0"
"GENERATED VIA SPACETRACK.ORG API","18 SPCS","53903","STARLINK-5022","PAYLOAD","U","22119T","2023-05-01 23:14:38","307552","15.08852324","0.000125","53.2177","324.7577","96.6237","263.4897","0","999","3427","0.00028249","0.00004212","0","3899068","0 STARLINK-5022","1 53903U 22119T   23121.96849893  .00004212  00000-0  28249-3 0  9997","2 53903  53.2177 324.7577 0001250  96.6237 263.4897 15.08852324 34276","2022-119T","53903","6917.843","95.437","540.572","538.843","0"
"GENERATED VIA SPACETRACK.ORG API","18 SPCS","53903","STARLINK-5022","PAYLOAD","U","22119T","2023-05-02 18:19:16","128768","15.08844435","0.0001335","53.2177","321.1907","94.8617","265.2528","0","999","3397","0.0001366","0.00001887","0","3899109","0 STARLINK-5022","1 53903U 22119T   23122.76338112  .00001887  00000-0  13660-3 0  9999","2 53903  53.2177 321.1907 0001335  94.8617 265.2528 15.08844435 33971","2022-119T","53903","6917.867","95.437","540.655","538.808","0"
"GENERATED VIA SPACETRACK.ORG API","18 SPCS","53903","STARLINK-5022","PAYLOAD","U","22119T","2023-05-02 19:54:39","175776","15.08845688","0.0001279","53.2172","320.8914","87.4076","272.7062","0","999","3440","0.00013729","0.00001898","0","3899277","0 STARLINK-5022","1 53903U 22119T   23122.82962009  .00001898  00000-0  13729-3 0  9992","2 53903  53.2172 320.8914 0001279  87.4076 272.7062 15.08845688 34400","2022-119T","53903","6917.863","95.437","540.613","538.843","0"
"GENERATED VIA SPACETRACK.ORG API","18 SPCS","53903","STARLINK-5022","PAYLOAD","U","22119T","2023-05-02 23:05:25","262016","15.0884763","0.0001251","53.2168","320.2934","95.2795","264.834","0","999","3442","0.00015973","0.00002256","0","3899966","0 STARLINK-5022","1 53903U 22119T   23122.96209794  .00002256  00000-0  15973-3 0  9994","2 53903  53.2168 320.2934 0001251  95.2795 264.8340 15.08847630 34428","2022-119T","53903","6917.857","95.437","540.587","538.857","0"
"GENERATED VIA SPACETRACK.ORG API","18 SPCS","53903","STARLINK-5022","PAYLOAD","U","22119T","2023-05-03 18:10:03","447840","15.08836915","0.0001219","53.2167","316.7279","88.5342","271.5789","0","999","3412","-0.000054657","-0.00001158","0","3900082","0 STARLINK-5022","1 53903U 22119T   23123.75698435 -.00001158  00000-0 -54657-4 0  9991","2 53903  53.2167 316.7279 0001219  88.5342 271.5789 15.08836915 34129","2022-119T","53903","6917.890","95.438","540.598","538.912","0"
"GENERATED VIA SPACETRACK.ORG API","18 SPCS","53903","STARLINK-5022","PAYLOAD","U","22119T","2023-05-03 18:10:03","447840","15.08836915","0.0001219","53.2167","316.7279","88.5342","271.5789","0","999","3454","-0.000054657","-0.00001158","0","3900281","0 STARLINK-5022","1 53903U 22119T   23123.75698435 -.00001158  00000-0 -54657-4 0  9991","2 53903  53.2167 316.7279 0001219  88.5342 271.5789 15.08836915 34545","2022-119T","53903","6917.890","95.438","540.598","538.912","0"
